IRIDIUM 156             
1 43576U 18061H   26157.86146323  .00000254  00000+0  83529-4 0  9996
2 43576  86.3965  61.0467 0002143  80.8029 279.3409 14.34218882411893
IRIDIUM 164             
1 43577U 18061J   26157.49359217  .00000167  00000+0  52523-4 0  9997
2 43577  86.3967  61.2407 0002065  88.8157 271.3275 14.34217181411888
IRIDIUM 159             
1 43578U 18061K   26157.46188025  .00000278  00000+0  92377-4 0  9996
2 43578  86.3966  61.1908 0002322  86.7795 273.3667 14.34218815411842
IRIDIUM 180             
1 43922U 19002A   26157.81021902  .00000055  00000+0  12609-4 0  9997
2 43922  86.3973 357.9367 0002254  89.0697 271.0757 14.34218034387502
IRIDIUM 176             
1 43923U 19002B   26157.62399367  .00000804  00000+0  12364-3 0  9999
2 43923  86.6095 357.9594 0002200  90.4585 269.6885 14.72252866397695
IRIDIUM 168             
1 43924U 19002C   26157.80387690  .00000023  00000+0  12660-5 0  9990
2 43924  86.3971 358.0163 0002100  89.9178 270.2259 14.34217549387486
IRIDIUM 173             
1 43925U 19002D   26157.79118983  .00000155  00000+0  48438-4 0  9993
2 43925  86.3975 357.9108 0002241  86.7782 273.3671 14.34217182387463
IRIDIUM 169             
1 43926U 19002E   26157.61020852  .00000302  00000+0  92071-4 0  9998
2 43926  86.4237  29.6155 0002217  70.9584 289.1854 14.38609732388705
IRIDIUM 172             
1 43927U 19002F   26157.78484897  .00000049  00000+0  10429-4 0  9995
2 43927  86.3973 357.9214 0002271  89.0585 271.0870 14.34217834387472
IRIDIUM 175             
1 43928U 19002G   26157.67064609  .00000369  00000+0  10308-3 0  9999
2 43928  86.4506 294.9180 0001191 227.9272 132.1828 14.43606921397463
IRIDIUM 171             
1 43929U 19002H   26157.83558942  .00000022  00000+0  90177-6 0  9997
2 43929  86.3978 358.2052 0001900  86.8894 273.2520 14.34217552387472
IRIDIUM 170             
1 43930U 19002J   26157.83408117  .00000232  00000+0  32903-4 0  9991
2 43930  86.6093 357.8739 0002367  87.1284 273.0204 14.72252497397733
IRIDIUM 167             
1 43931U 19002K   26157.61994082  .00000014  00000+0 -21435-5 0  9997
2 43931  86.3974 358.0127 0001879  85.4951 274.6459 14.34217590387441
IRIDIUM 181             
1 56726U 23068S   26157.42973254  .00000380  00000+0  10690-3 0  9991
2 56726  86.4503  61.2868 0002269  89.9643 270.1818 14.43308993160887
IRIDIUM 177             
1 56727U 23068T   26157.77668882  .00001248  00000+0  16077-3 0  9997
2 56727  86.1959 333.7375 0002473  86.8854 273.2650 14.80221466164823
IRIDIUM 174             
1 56728U 23068U   26157.54984527  .00000356  00000+0  52599-4 0  9999
2 56728  86.6103 358.1398 0002599  87.7998 272.3516 14.72254363164457
IRIDIUM 178             
1 56729U 23068V   26157.63058855  .00001044  00000+0  13392-3 0  9998
2 56729  86.6546  29.7721 0002492  88.5001 271.6506 14.80248933164801
IRIDIUM 179             
1 56730U 23068W   26157.62526201  .00001011  00000+0  12962-3 0  9990
2 56730  86.6789  38.7229 0002405  87.2430 272.9067 14.80232237164807
